[{"OBJECT_NAME":"STARLINK-4555","OBJECT_ID":"2022-101AX","EPOCH":"2026-03-09T09:12:49.715136","MEAN_MOTION":15.08833288,"ECCENTRICITY":0.00012425,"INCLINATION":53.2175,"RA_OF_ASC_NODE":55.1673,"ARG_OF_PERICENTER":93.5569,"MEAN_ANOMALY":266.5565,"EPHEMERIS_TYPE":0,"CLASSIFICATION_TYPE":"U","NORAD_CAT_ID":53572,"ELEMENT_SET_NO":999,"REV_AT_EPOCH":19640,"BSTAR":5.284738e-5,"MEAN_MOTION_DOT":5.53e-6,"MEAN_MOTION_DDOT":0},{"OBJECT_NAME":"PEGASUS DEB","OBJECT_ID":"1994-029BC","EPOCH":"2026-03-09T22:00:19.479168","MEAN_MOTION":15.02669201,"ECCENTRICITY":0.00619411,"INCLINATION":81.9229,"RA_OF_ASC_NODE":10.1044,"ARG_OF_PERICENTER":202.7728,"MEAN_ANOMALY":222.9696,"EPHEMERIS_TYPE":0,"CLASSIFICATION_TYPE":"U","NORAD_CAT_ID":24007,"ELEMENT_SET_NO":999,"REV_AT_EPOCH":60998,"BSTAR":0.00034526552,"MEAN_MOTION_DOT":4.826e-5,"MEAN_MOTION_DDOT":0}]
